SatCatId,ObjectName,LaunchYear,OrbitalPeriod,LaunchMass,StatusCode,Inclination,Status,UcsData,OrbitClassEstimated,LaunchSiteCountry,Owner,UseType,Purpose,LaunchVehicleClass,TLE1,TLE2,MeanMotion,Eccentricity,OrbitClass
52101,STARLINK-3703,2022,95.54,260.0,+,53.21,Active,1,LEO,USA,USA,Commercial,Communications,Falcon,1 52101U 22029P   23247.30279864  .00000517  00000+0  52576-4 0  9992,2 52101  53.2156 247.5004 0001457  92.0909 268.0250 15.07199661 82155,15.07199661,0.0001457,LEO
52102,STARLINK-3709,2022,95.44,260.0,+,53.22,Active,1,LEO,USA,USA,Commercial,Communications,Falcon,1 52102U 22029Q   23247.37161197  .00000487  00000+0  48671-4 0  9996,2 52102  53.2160 237.1209 0001439  92.3851 267.7306 15.08837512 82302,15.08837512,0.0001439,LEO
52103,STARLINK-3705,2022,95.44,260.0,+,53.22,Active,1,LEO,USA,USA,Commercial,Communications,Falcon,1 52103U 22029R   23247.41114099 -.00000393  00000+0 -65834-5 0  9990,2 52103  53.2166 236.9437 0001442  95.4500 264.6657 15.08831963 82307,15.08831963,0.0001442,LEO
52105,STARLINK-3706,2022,95.44,260.0,+,53.22,Active,1,LEO,USA,USA,Commercial,Communications,Falcon,1 52105U 22029T   23247.27225541 -.00000654  00000+0 -22985-4 0  9990,2 52105  53.2145 237.5683 0001808  96.2488 263.8710 15.08833942 82283,15.08833942,0.0001808,LEO
52106,STARLINK-3670,2022,95.44,260.0,+,53.22,Active,1,LEO,USA,USA,Commercial,Communications,Falcon,1 52106U 22029U   23247.29245445 -.00001291  00000+0 -63058-4 0  9992,2 52106  53.2162 247.4778 0001357  95.0671 265.0476 15.08834354 82155,15.08834354,0.0001357,LEO
52107,STARLINK-3658,2022,95.44,260.0,+,53.22,Active,1,LEO,USA,USA,Commercial,Communications,Falcon,1 52107U 22029V   23247.26761743 -.00000160  00000+0  80186-5 0  9999,2 52107  53.2168 237.5886 0001410  96.4946 263.6207 15.08833222 82285,15.08833222,0.000141,LEO
52108,STARLINK-3698,2022,95.44,260.0,+,53.21,Active,1,LEO,USA,USA,Commercial,Communications,Falcon,1 52108U 22029W   23247.40745785 -.00000101  00000+0  11717-4 0  9992,2 52108  53.2163 236.9614 0001332  94.3809 265.7335 15.08833807 82308,15.08833807,0.0001332,LEO
52110,STARLINK-3687,2022,95.44,260.0,+,53.21,Active,1,LEO,USA,USA,Commercial,Communications,Falcon,1 52110U 22029Y   23247.40377904 -.00001166  00000+0 -55202-4 0  9999,2 52110  53.2164 236.9793 0001384  90.0871 270.0280 15.08835695 82304,15.08835695,0.0001384,LEO
52111,STARLINK-3708,2022,95.44,260.0,+,53.22,Active,1,LEO,USA,USA,Commercial,Communications,Falcon,1 52111U 22029Z   23247.38905593 -.00000105  00000+0  11467-4 0  9994,2 52111  53.2170 237.0422 0001242  96.5591 263.5542 15.08836067 82308,15.08836067,0.0001242,LEO
52112,STARLINK-3734,2022,95.44,260.0,+,53.22,Active,1,LEO,USA,USA,Commercial,Communications,Falcon,1 52112U 22029AA  23247.39641681 -.00000910  00000+0 -39096-4 0  9994,2 52112  53.2164 237.0102 0001493  96.5145 263.6017 15.08835985 82306,15.08835985,0.0001493,LEO
52113,STARLINK-3736,2022,95.44,260.0,+,53.22,Active,1,LEO,USA,USA,Commercial,Communications,Falcon,1 52113U 22029AB  23247.44793752 -.00000254  00000+0  21208-5 0  9995,2 52113  53.2171 236.7772 0001506  98.2000 261.9163 15.08836880 82317,15.0883688,0.0001506,LEO
52114,STARLINK-3737,2022,95.44,260.0,+,53.22,Active,1,LEO,USA,USA,Commercial,Communications,Falcon,1 52114U 22029AC  23247.39274167 -.00001691  00000+0 -88178-4 0  9999,2 52114  53.2153 237.0269 0001398  84.9760 275.1391 15.08829694 82301,15.08829694,0.0001398,LEO
52115,STARLINK-3685,2022,95.44,260.0,+,53.21,Active,1,LEO,USA,USA,Commercial,Communications,Falcon,1 52115U 22029AD  23247.37433921 -.00000585  00000+0 -18653-4 0  9995,2 52115  53.2155 237.1093 0001496  89.4891 270.6273 15.08834348 82305,15.08834348,0.0001496,LEO
52116,STARLINK-3735,2022,95.44,260.0,+,53.21,Active,1,LEO,USA,USA,Commercial,Communications,Falcon,1 52116U 22029AE  23247.38537322 -.00000206  00000+0  51506-5 0  9991,2 52116  53.2158 237.0584 0001270  94.2591 265.8546 15.08839646 82309,15.08839646,0.000127,LEO
52117,STARLINK-3738,2022,95.44,260.0,+,53.22,Active,1,LEO,USA,USA,Commercial,Communications,Falcon,1 52117U 22029AF  23247.23449843 -.00001227  00000+0 -59007-4 0  9994,2 52117  53.2161 237.7352 0001538  81.9336 278.1830 15.08839068 82290,15.08839068,0.0001538,LEO
52118,STARLINK-3743,2022,95.44,260.0,+,53.22,Active,1,LEO,USA,USA,Commercial,Communications,Falcon,1 52118U 22029AG  23247.37801604 -.00000552  00000+0 -16614-4 0  9994,2 52118  53.2160 237.0910 0001526  90.2491 269.8676 15.08837260 82304,15.0883726,0.0001526,LEO
52119,STARLINK-3558,2022,95.44,260.0,+,53.22,Active,1,LEO,USA,USA,Commercial,Communications,Falcon,1 52119U 22029AH  23247.22714062 -.00000459  00000+0 -10722-4 0  9990,2 52119  53.2167 237.7728 0001600  90.1113 270.0063 15.08834856 82288,15.08834856,0.00016,LEO
52120,STARLINK-3534,2022,95.44,260.0,+,53.22,Active,1,LEO,USA,USA,Commercial,Communications,Falcon,1 52120U 22029AJ  23247.23817979 -.00000260  00000+0  17424-5 0  9990,2 52120  53.2158 237.7191 0001719  86.1502 273.9686 15.08834496 82296,15.08834496,0.0001719,LEO
52121,STARLINK-3678,2022,95.44,260.0,+,53.22,Active,1,LEO,USA,USA,Commercial,Communications,Falcon,1 52121U 22029AK  23247.34212858  .00001190  00000+0  92821-4 0  9993,2 52121  53.2158 227.2530 0001311  86.5720 273.5422 15.08845217 82435,15.08845217,0.0001311,LEO
52122,STARLINK-3726,2022,95.44,260.0,+,53.21,Active,1,LEO,USA,USA,Commercial,Communications,Falcon,1 52122U 22029AL  23247.36329906  .00000315  00000+0  37882-4 0  9993,2 52122  53.2161 237.1587 0001754  90.7713 269.3480 15.08837989 82302,15.08837989,0.0001754,LEO
52123,STARLINK-3725,2022,95.44,260.0,+,53.22,Active,1,LEO,USA,USA,Commercial,Communications,Falcon,1 52123U 22029AM  23247.32837092 -.00000440  00000+0 -95801-5 0  9997,2 52123  53.2161 227.2508 0001329  89.3749 270.7395 15.08832393 82447,15.08832393,0.0001329,LEO
52124,STARLINK-3684,2022,95.44,260.0,+,53.22,Active,1,LEO,USA,USA,Commercial,Communications,Falcon,1 52124U 22029AN  23247.35593982 -.00000332  00000+0 -27417-5 0  9996,2 52124  53.2172 237.1957 0001429  95.0262 265.0893 15.08835451 82306,15.08835451,0.0001429,LEO
52125,STARLINK-3727,2022,95.44,260.0,+,53.22,Active,1,LEO,USA,USA,Commercial,Communications,Falcon,1 52125U 22029AP  23247.26486254 -.00000504  00000+0 -13592-4 0  9999,2 52125  53.2170 227.6008 0001426  91.6909 268.4246 15.08831894 82433,15.08831894,0.0001426,LEO
52126,STARLINK-3732,2022,95.44,260.0,+,53.22,Active,1,LEO,USA,USA,Commercial,Communications,Falcon,1 52126U 22029AQ  23247.33843123  .00003228  00000+0  22065-3 0  9998,2 52126  53.2156 227.2724 0001615  85.7804 274.3373 15.08864292 82432,15.08864292,0.0001615,LEO
52127,STARLINK-3715,2022,95.44,260.0,+,53.22,Active,1,LEO,USA,USA,Commercial,Communications,Falcon,1 52127U 22029AR  23247.32742303 -.00000812  00000+0 -32947-4 0  9995,2 52127  53.2160 227.3221 0001292  89.5875 270.5265 15.08830960 82435,15.0883096,0.0001292,LEO
52129,STARLINK-3661,2022,95.44,260.0,+,53.22,Active,1,LEO,USA,USA,Commercial,Communications,Falcon,1 52129U 22029AT  23247.38630220 -.00000807  00000+0 -32647-4 0  9998,2 52129  53.2170 227.0570 0001148  90.0529 270.0595 15.08831057 82456,15.08831057,0.0001148,LEO
52131,STARLINK-3711,2022,95.44,260.0,+,53.22,Active,1,LEO,USA,USA,Commercial,Communications,Falcon,1 52131U 22029AV  23247.25014200 -.00001404  00000+0 -70189-4 0  9998,2 52131  53.2175 227.6690 0001375  94.8249 265.2901 15.08827567 82432,15.08827567,0.0001375,LEO
52132,STARLINK-3718,2022,95.44,260.0,+,53.22,Active,1,LEO,USA,USA,Commercial,Communications,Falcon,1 52132U 22029AW  23247.32374423 -.00000710  00000+0 -26521-4 0  9993,2 52132  53.2176 227.3399 0001332  96.2199 263.8945 15.08829055 82447,15.08829055,0.0001332,LEO
52133,STARLINK-3707,2022,95.44,260.0,+,53.22,Active,1,LEO,USA,USA,Commercial,Communications,Falcon,1 52133U 22029AX  23247.24277608 -.00000082  00000+0  12942-4 0  9995,2 52133  53.2196 227.6995 0001383  96.1292 263.9858 15.08834596 82433,15.08834596,0.0001383,LEO
52134,STARLINK-3721,2022,95.44,260.0,+,53.22,Active,1,LEO,USA,USA,Commercial,Communications,Falcon,1 52134U 22029AY  23247.31270159 -.00000772  00000+0 -30393-4 0  9995,2 52134  53.2178 227.3876 0001552  90.0357 270.0813 15.08830953 82446,15.08830953,0.0001552,LEO
52135,STARLINK-3729,2022,95.44,260.0,+,53.22,Active,1,LEO,USA,USA,Commercial,Communications,Falcon,1 52135U 22029AZ  23247.36517485 -.00000554  00000+0 -16749-4 0  9994,2 52135  53.2154 227.1619 0001394  91.6274 268.4878 15.08839283 82451,15.08839283,0.0001394,LEO
52136,STARLINK-3720,2022,95.44,260.0,+,53.22,Active,1,LEO,USA,USA,Commercial,Communications,Falcon,1 52136U 22029BA  23247.23909632 -.00000409  00000+0 -76076-5 0  9999,2 52136  53.2167 227.7166 0001362  97.9601 262.1546 15.08834496 82439,15.08834496,0.0001362,LEO
52137,STARLINK-3733,2022,95.44,260.0,+,53.22,Active,1,LEO,USA,USA,Commercial,Communications,Falcon,1 52137U 22029BB  23247.36054010 -.00000722  00000+0 -27254-4 0  9996,2 52137  53.2167 227.1701 0001471  87.2709 272.8451 15.08832503 82453,15.08832503,0.0001471,LEO
52138,STARLINK-3723,2022,95.44,260.0,+,53.22,Active,1,LEO,USA,USA,Commercial,Communications,Falcon,1 52138U 22029BC  23247.36789875 -.00002472  00000+0 -13730-3 0  9998,2 52138  53.2168 227.1378 0001324  91.1842 268.9302 15.08840399 82457,15.08840399,0.0001324,LEO
52139,STARLINK-3730,2022,95.44,260.0,+,53.22,Active,1,LEO,USA,USA,Commercial,Communications,Falcon,1 52139U 22029BD  23247.28233605 -.00000782  00000+0 -31038-4 0  9999,2 52139  53.2160 237.5246 0001495  96.5113 263.6049 15.08832727 82296,15.08832727,0.0001495,LEO
52140,STARLINK-3682,2022,95.44,260.0,+,53.22,Active,1,LEO,USA,USA,Commercial,Communications,Falcon,1 52140U 22029BE  23247.42309834 -.00000445  00000+0 -98640-5 0  9994,2 52140  53.2165 226.8864 0001395 100.8294 259.2855 15.08834961 82465,15.08834961,0.0001395,LEO
